POEM-2                  
1 56308U 23057A   26068.98468983  .00003020  00000+0  20743-3 0  9999
2 56308   9.8873 262.7521 0021373 321.9306  37.9396 14.94660083157397
STARLINK-36265          
1 67208U 25304S   26068.70424022 -.00012937  00000+0 -10792-2 0  9994
2 67208  70.0020 174.5517 0004447 251.0310 109.0367 14.98297439 13887
